1 35929U 97051UN  26113.09188747  .00030442  00000+0  16954-2 0  9996
2 35929  86.3437 249.8913 0013556 253.0784 106.8970 15.13410606897592
